RCM-1                   
1 44322U 19033A   26197.30753538  .00000545  00000+0  58425-4 0  9991
2 44322  97.7604 204.3431 0001513  92.5167 326.1587 14.92587500386423
RCM-3                   
1 44323U 19033B   26197.31924072 -.00000092  00000+0 -35647-5 0  9997
2 44323  97.7603 204.4490 0001504  91.8452 268.2940 14.92586769386445
RCM-2                   
1 44324U 19033C   26197.27440826  .00000142  00000+0  19241-4 0  9998
2 44324  97.7604 204.3551 0001535  91.5009 268.6386 14.92587786386429
