{"fetched_at":"2026-07-16T17:46:55.647Z","source":"https://celestrak.org/NORAD/elements/gp.php?NAME=RCM&FORMAT=JSON","constellation":"rcm","records":[{"OBJECT_NAME":"RCM-1","OBJECT_ID":"2019-033A","EPOCH":"2026-07-16T07:22:51.056832","CLASSIFICATION_TYPE":"U","MEAN_MOTION":14.925875,"ECCENTRICITY":0.00015138,"INCLINATION":97.7604,"RA_OF_ASC_NODE":204.3431,"ARG_OF_PERICENTER":92.5167,"MEAN_ANOMALY":326.1587,"EPHEMERIS_TYPE":0,"NORAD_CAT_ID":44322,"ELEMENT_SET_NO":999,"REV_AT_EPOCH":38642,"BSTAR":0.000058425073,"MEAN_MOTION_DOT":0.00000545,"MEAN_MOTION_DDOT":0},{"OBJECT_NAME":"RCM-3","OBJECT_ID":"2019-033B","EPOCH":"2026-07-16T07:39:42.398208","CLASSIFICATION_TYPE":"U","MEAN_MOTION":14.92586769,"ECCENTRICITY":0.00015045,"INCLINATION":97.7603,"RA_OF_ASC_NODE":204.449,"ARG_OF_PERICENTER":91.8452,"MEAN_ANOMALY":268.294,"EPHEMERIS_TYPE":0,"NORAD_CAT_ID":44323,"ELEMENT_SET_NO":999,"REV_AT_EPOCH":38644,"BSTAR":-0.000003564723,"MEAN_MOTION_DOT":-9.2e-7,"MEAN_MOTION_DDOT":0},{"OBJECT_NAME":"RCM-2","OBJECT_ID":"2019-033C","EPOCH":"2026-07-16T06:35:08.873664","CLASSIFICATION_TYPE":"U","MEAN_MOTION":14.92587786,"ECCENTRICITY":0.00015359,"INCLINATION":97.7604,"RA_OF_ASC_NODE":204.3551,"ARG_OF_PERICENTER":91.5009,"MEAN_ANOMALY":268.6386,"EPHEMERIS_TYPE":0,"NORAD_CAT_ID":44324,"ELEMENT_SET_NO":999,"REV_AT_EPOCH":38642,"BSTAR":0.000019240662,"MEAN_MOTION_DOT":0.00000142,"MEAN_MOTION_DDOT":0}]}
